[{"OBJECT_NAME":"ORBCOMM FM27","OBJECT_ID":"1998-053G","EPOCH":"2026-03-09T11:53:47.305824","MEAN_MOTION":14.3893044,"ECCENTRICITY":0.00018909,"INCLINATION":45.0048,"RA_OF_ASC_NODE":88.78,"ARG_OF_PERICENTER":259.8961,"MEAN_ANOMALY":100.1675,"EPHEMERIS_TYPE":0,"CLASSIFICATION_TYPE":"U","NORAD_CAT_ID":25481,"ELEMENT_SET_NO":999,"REV_AT_EPOCH":43587,"BSTAR":0.00047812945,"MEAN_MOTION_DOT":1.345e-5,"MEAN_MOTION_DDOT":0},{"OBJECT_NAME":"CZ-6A DEB","OBJECT_ID":"2024-140RE","EPOCH":"2026-02-25T01:33:03.682080","MEAN_MOTION":14.26216317,"ECCENTRICITY":0.00569916,"INCLINATION":88.9779,"RA_OF_ASC_NODE":285.7518,"ARG_OF_PERICENTER":211.5247,"MEAN_ANOMALY":148.2528,"EPHEMERIS_TYPE":0,"CLASSIFICATION_TYPE":"U","NORAD_CAT_ID":61160,"ELEMENT_SET_NO":999,"REV_AT_EPOCH":7847,"BSTAR":0.0018483657,"MEAN_MOTION_DOT":4.518e-5,"MEAN_MOTION_DDOT":0}]
